[{"OBJECT_NAME":"STARLINK-4006","OBJECT_ID":"2022-053W","EPOCH":"2026-03-09T12:10:24.309984","MEAN_MOTION":15.08844691,"ECCENTRICITY":0.00012152,"INCLINATION":53.2171,"RA_OF_ASC_NODE":154.9392,"ARG_OF_PERICENTER":90.7895,"MEAN_ANOMALY":269.3236,"EPHEMERIS_TYPE":0,"CLASSIFICATION_TYPE":"U","NORAD_CAT_ID":52676,"ELEMENT_SET_NO":999,"REV_AT_EPOCH":21101,"BSTAR":-4.2533277e-5,"MEAN_MOTION_DOT":-9.65e-6,"MEAN_MOTION_DDOT":0},{"OBJECT_NAME":"OBJECT J","OBJECT_ID":"2017-042J","EPOCH":"2026-03-09T23:17:19.167936","MEAN_MOTION":15.08203331,"ECCENTRICITY":0.00078186,"INCLINATION":97.4246,"RA_OF_ASC_NODE":235.0467,"ARG_OF_PERICENTER":81.5059,"MEAN_ANOMALY":278.7055,"EPHEMERIS_TYPE":0,"CLASSIFICATION_TYPE":"U","NORAD_CAT_ID":42833,"ELEMENT_SET_NO":999,"REV_AT_EPOCH":47205,"BSTAR":0.00039182004,"MEAN_MOTION_DOT":6.006e-5,"MEAN_MOTION_DDOT":0}]
